{
  "updated": "2026-07-16T19:58:45.622Z",
  "capsules": {
    "66664": {
      "name": "SOYUZ-MS 28",
      "kind": "crew",
      "family": "soyuz",
      "phase": "docked",
      "stationKey": "iss",
      "since": "2026-07-03T10:34:14.509Z",
      "distanceKm": 0,
      "altitudeKm": 427.2,
      "inclinationDeg": 51.631,
      "l1": "1 66664U 25275A   26197.21800738  .00003540  00000+0  72346-4 0  9990",
      "l2": "2 66664  51.6313 156.4232 0006748 301.4056  58.6272 15.49021242575362"
    },
    "67796": {
      "name": "CREW DRAGON 12",
      "kind": "crew",
      "family": "dragon",
      "phase": "docked",
      "stationKey": "iss",
      "since": "2026-07-03T10:34:14.509Z",
      "distanceKm": 0,
      "altitudeKm": 427.2,
      "inclinationDeg": 51.631,
      "l1": "1 67796U 26031A   26197.21800738  .00003540  00000+0  72346-4 0  9998",
      "l2": "2 67796  51.6313 156.4232 0006748 301.4056  58.6272 15.49021242575325"
    },
    "68319": {
      "name": "PROGRESS-MS 33",
      "kind": "cargo",
      "family": "progress",
      "phase": "docked",
      "stationKey": "iss",
      "since": "2026-07-10T20:18:26.588Z",
      "distanceKm": 0,
      "altitudeKm": 427.2,
      "inclinationDeg": 51.631,
      "l1": "1 68319U 26058A   26197.21800738  .00003540  00000+0  72346-4 0  9999",
      "l2": "2 68319  51.6313 156.4232 0006748 301.4056  58.6272 15.49021242575406"
    },
    "68689": {
      "name": "CYGNUS NG-24",
      "kind": "cargo",
      "family": "cygnus",
      "phase": "docked",
      "stationKey": "iss",
      "since": "2026-07-10T20:18:26.588Z",
      "distanceKm": 0,
      "altitudeKm": 427.2,
      "inclinationDeg": 51.631,
      "l1": "1 68689U 26079A   26197.21800738  .00003540  00000+0  72346-4 0  9992",
      "l2": "2 68689  51.6313 156.4232 0006748 301.4056  58.6272 15.49021242575440"
    },
    "68837": {
      "name": "PROGRESS-MS 34",
      "kind": "cargo",
      "family": "progress",
      "phase": "docked",
      "stationKey": "iss",
      "since": "2026-07-10T20:18:26.588Z",
      "distanceKm": 0,
      "altitudeKm": 427.2,
      "inclinationDeg": 51.631,
      "l1": "1 68837U 26093A   26197.21800738  .00003540  00000+0  72346-4 0  9993",
      "l2": "2 68837  51.6313 156.4232 0006748 301.4056  58.6272 15.49021242575489"
    },
    "69049": {
      "name": "TIANZHOU-10",
      "kind": "cargo",
      "family": "tianzhou",
      "phase": "docked",
      "stationKey": "css",
      "since": "2026-07-10T20:18:26.588Z",
      "distanceKm": 0,
      "altitudeKm": 402.5,
      "inclinationDeg": 41.469,
      "l1": "1 69049U 26102A   26197.24049423  .00001153  00000+0  19133-4 0  9992",
      "l2": "2 69049  41.4687 145.4981 0002241 301.7123  58.3496 15.58121312297257"
    },
    "69180": {
      "name": "SHENZHOU-23 (SZ-23)",
      "kind": "crew",
      "family": "shenzhou",
      "phase": "docked",
      "stationKey": "css",
      "since": "2026-07-03T10:34:14.509Z",
      "distanceKm": 0,
      "altitudeKm": 402.5,
      "inclinationDeg": 41.469,
      "l1": "1 69180U 26113A   26197.24049423  .00001153  00000+0  19133-4 0  9990",
      "l2": "2 69180  41.4687 145.4981 0002241 301.7123  58.3496 15.58121312296870"
    }
  },
  "events": [
    {
      "id": "68319",
      "name": "PROGRESS-MS 33",
      "kind": "cargo",
      "family": "progress",
      "stationKey": "iss",
      "event": "launched",
      "at": "2026-07-10T20:18:26.588Z"
    },
    {
      "id": "68689",
      "name": "CYGNUS NG-24",
      "kind": "cargo",
      "family": "cygnus",
      "stationKey": "iss",
      "event": "launched",
      "at": "2026-07-10T20:18:26.588Z"
    },
    {
      "id": "68837",
      "name": "PROGRESS-MS 34",
      "kind": "cargo",
      "family": "progress",
      "stationKey": "iss",
      "event": "launched",
      "at": "2026-07-10T20:18:26.588Z"
    },
    {
      "id": "69049",
      "name": "TIANZHOU-10",
      "kind": "cargo",
      "family": "tianzhou",
      "stationKey": "css",
      "event": "launched",
      "at": "2026-07-10T20:18:26.588Z"
    }
  ]
}
